{"type": "FeatureCollection", "features": [ {"type": "Feature", "properties": {"norad_id": 33867, "name": "IRIDIUM 33 DEB", "group": "iridium-33-debris", "lat": -2.90886591797119, "lon": -15.61456710002955, "alt_km": 280.3482195623901, "timestamp": "2025-12-23T05:02:12.414911+00:00", "meta": {"OBJECT_NAME": "IRIDIUM 33 DEB", "OBJECT_ID": "1997-051AL", "EPOCH": "2025-12-22T11:00:02.746368", "MEAN_MOTION": 15.94011051, "ECCENTRICITY": 0.0013656, "INCLINATION": 86.3662, "RA_OF_ASC_NODE": 344.9772, "ARG_OF_PERICENTER": 104.8485, "MEAN_ANOMALY": 255.4311, "EPHEMERIS_TYPE": 0, "CLASSIFICATION_TYPE": "U", "NORAD_CAT_ID": 33867, "ELEMENT_SET_NO": 999, "REV_AT_EPOCH": 89664, "BSTAR": 0.0093592392, "MEAN_MOTION_DOT": 0.03057152, "MEAN_MOTION_DDOT": 0.0088726237}, "tle": {"line1": "1 33867U 97051AL  25356.45836512  .03057152  88726-2  93592-2 0  9990", "line2": "2 33867  86.3662 344.9772 0013656 104.8485 255.4311 15.94011051896648"}}, "geometry": {"type": "Point", "coordinates": [-15.61456710002955, -2.90886591797119]}}, {"type": "Feature", "properties": {"norad_id": 33870, "name": "IRIDIUM 33 DEB", "group": "iridium-33-debris", "lat": 69.53983217454554, "lon": 63.5595632380267, "alt_km": 728.2033430932224, "timestamp": "2025-12-23T05:02:12.414922+00:00", "meta": {"OBJECT_NAME": "IRIDIUM 33 DEB", "OBJECT_ID": "1997-051AP", "EPOCH": "2025-12-22T16:01:21.825408", "MEAN_MOTION": 14.45898078, "ECCENTRICITY": 0.00224522, "INCLINATION": 86.3736, "RA_OF_ASC_NODE": 54.0053, "ARG_OF_PERICENTER": 146.535, "MEAN_ANOMALY": 342.8525, "EPHEMERIS_TYPE": 0, "CLASSIFICATION_TYPE": "U", "NORAD_CAT_ID": 33870, "ELEMENT_SET_NO": 999, "REV_AT_EPOCH": 88280, "BSTAR": 0.00065938146, "MEAN_MOTION_DOT": 2.37e-05, "MEAN_MOTION_DDOT": 0}, "tle": {"line1": "1 33870U 97051AP  25356.66761372  .00002370  00000+0  65938-3 0  9997", "line2": "2 33870  86.3736  54.0053 0022452 146.5350 342.8525 14.45898078882801"}}, "geometry": {"type": "Point", "coordinates": [63.5595632380267, 69.53983217454554]}}, {"type": "Feature", "properties": {"norad_id": 33881, "name": "IRIDIUM 33 DEB", "group": "iridium-33-debris", "lat": -15.964377635477733, "lon": 101.15684325676904, "alt_km": 748.3665323014075, "timestamp": "2025-12-23T05:02:12.414932+00:00", "meta": {"OBJECT_NAME": "IRIDIUM 33 DEB", "OBJECT_ID": "1997-051BA", "EPOCH": "2025-12-22T19:48:34.710336", "MEAN_MOTION": 14.56741878, "ECCENTRICITY": 0.00612167, "INCLINATION": 86.3868, "RA_OF_ASC_NODE": 102.3597, "ARG_OF_PERICENTER": 142.0862, "MEAN_ANOMALY": 347.3767, "EPHEMERIS_TYPE": 0, "CLASSIFICATION_TYPE": "U", "NORAD_CAT_ID": 33881, "ELEMENT_SET_NO": 999, "REV_AT_EPOCH": 87647, "BSTAR": 0.0020565617, "MEAN_MOTION_DOT": 9.456e-05, "MEAN_MOTION_DDOT": 0}, "tle": {"line1": "1 33881U 97051BA  25356.82540174  .00009456  00000+0  20566-2 0  9991", "line2": "2 33881  86.3868 102.3597 0061216 142.0862 347.3767 14.56741878876470"}}, "geometry": {"type": "Point", "coordinates": [101.15684325676904, -15.964377635477733]}}, {"type": "Feature", "properties": {"norad_id": 33884, "name": "IRIDIUM 33 DEB", "group": "iridium-33-debris", "lat": -3.747305582043585, "lon": 4.852802617703291, "alt_km": 638.6420381985936, "timestamp": "2025-12-23T05:02:12.414943+00:00", "meta": {"OBJECT_NAME": "IRIDIUM 33 DEB", "OBJECT_ID": "1997-051BD", "EPOCH": "2025-12-21T19:42:17.168256", "MEAN_MOTION": 14.77591703, "ECCENTRICITY": 0.00089767, "INCLINATION": 86.3691, "RA_OF_ASC_NODE": 5.7181, "ARG_OF_PERICENTER": 287.8241, "MEAN_ANOMALY": 245.5748, "EPHEMERIS_TYPE": 0, "CLASSIFICATION_TYPE": "U", "NORAD_CAT_ID": 33884, "ELEMENT_SET_NO": 999, "REV_AT_EPOCH": 88981, "BSTAR": 0.0012315655, "MEAN_MOTION_DOT": 8.831e-05, "MEAN_MOTION_DDOT": 0}, "tle": {"line1": "1 33884U 97051BD  25355.82103204  .00008831  00000+0  12316-2 0  9992", "line2": "2 33884  86.3691   5.7181 0008976 287.8241 245.5748 14.77591703889818"}}, "geometry": {"type": "Point", "coordinates": [4.852802617703291, -3.747305582043585]}}, {"type": "Feature", "properties": {"norad_id": 33886, "name": "IRIDIUM 33 DEB", "group": "iridium-33-debris", "lat": 18.758449634417957, "lon": -118.40960558636931, "alt_km": 764.9978934622759, "timestamp": "2025-12-23T05:02:12.414953+00:00", "meta": {"OBJECT_NAME": "IRIDIUM 33 DEB", "OBJECT_ID": "1997-051BF", "EPOCH": "2025-12-22T15:26:54.804768", "MEAN_MOTION": 14.36062759, "ECCENTRICITY": 0.00132105, "INCLINATION": 86.3822, "RA_OF_ASC_NODE": 63.0599, "ARG_OF_PERICENTER": 206.3704, "MEAN_ANOMALY": 269.6473, "EPHEMERIS_TYPE": 0, "CLASSIFICATION_TYPE": "U", "NORAD_CAT_ID": 33886, "ELEMENT_SET_NO": 999, "REV_AT_EPOCH": 88194, "BSTAR": 0.00016601054, "MEAN_MOTION_DOT": 5.03e-06, "MEAN_MOTION_DDOT": 0}, "tle": {"line1": "1 33886U 97051BF  25356.64368987  .00000503  00000+0  16601-3 0  9996", "line2": "2 33886  86.3822  63.0599 0013210 206.3704 269.6473 14.36062759881940"}}, "geometry": {"type": "Point", "coordinates": [-118.40960558636931, 18.758449634417957]}}, {"type": "Feature", "properties": {"norad_id": 33887, "name": "IRIDIUM 33 DEB", "group": "iridium-33-debris", "lat": 38.43656466629018, "lon": 175.93961740638468, "alt_km": 762.071257767604, "timestamp": "2025-12-23T05:02:12.414977+00:00", "meta": {"OBJECT_NAME": "IRIDIUM 33 DEB", "OBJECT_ID": "1997-051BG", "EPOCH": "2025-12-22T19:10:48.619776", "MEAN_MOTION": 14.37229526, "ECCENTRICITY": 0.00055151, "INCLINATION": 86.3042, "RA_OF_ASC_NODE": 359.0569, "ARG_OF_PERICENTER": 187.2998, "MEAN_ANOMALY": 350.5389, "EPHEMERIS_TYPE": 0, "CLASSIFICATION_TYPE": "U", "NORAD_CAT_ID": 33887, "ELEMENT_SET_NO": 999, "REV_AT_EPOCH": 88309, "BSTAR": 0.00012980787, "MEAN_MOTION_DOT": 4.06e-06, "MEAN_MOTION_DDOT": 0}, "tle": {"line1": "1 33887U 97051BG  25356.79917384  .00000406  00000+0  12981-3 0  9993", "line2": "2 33887  86.3042 359.0569 0005515 187.2998 350.5389 14.37229526883093"}}, "geometry": {"type": "Point", "coordinates": [175.93961740638468, 38.43656466629018]}}, {"type": "Feature", "properties": {"norad_id": 33953, "name": "IRIDIUM 33 DEB", "group": "iridium-33-debris", "lat": -40.26123626854097, "lon": 46.164673621795615, "alt_km": 719.1072856974606, "timestamp": "2025-12-23T05:02:12.414990+00:00", "meta": {"OBJECT_NAME": "IRIDIUM 33 DEB", "OBJECT_ID": "1997-051BN", "EPOCH": "2025-12-22T04:44:25.619136", "MEAN_MOTION": 14.55406947, "ECCENTRICITY": 0.00178347, "INCLINATION": 86.3836, "RA_OF_ASC_NODE": 49.6744, "ARG_OF_PERICENTER": 73.9809, "MEAN_ANOMALY": 345.1929, "EPHEMERIS_TYPE": 0, "CLASSIFICATION_TYPE": "U", "NORAD_CAT_ID": 33953, "ELEMENT_SET_NO": 999, "REV_AT_EPOCH": 88441, "BSTAR": 0.0010994661, "MEAN_MOTION_DOT": 4.805e-05, "MEAN_MOTION_DDOT": 0}, "tle": {"line1": "1 33953U 97051BN  25356.19751874  .00004805  00000+0  10995-2 0  9990", "line2": "2 33953  86.3836  49.6744 0017834  73.9809 345.1929 14.55406947884415"}}, "geometry": {"type": "Point", "coordinates": [46.164673621795615, -40.26123626854097]}}, {"type": "Feature", "properties": {"norad_id": 33960, "name": "IRIDIUM 33 DEB", "group": "iridium-33-debris", "lat": 3.688518562059081, "lon": 104.33463063957305, "alt_km": 617.4870174898679, "timestamp": "2025-12-23T05:02:12.415002+00:00", "meta": {"OBJECT_NAME": "IRIDIUM 33 DEB", "OBJECT_ID": "1997-051BV", "EPOCH": "2025-12-22T20:25:56.627904", "MEAN_MOTION": 14.85668232, "ECCENTRICITY": 0.00072159, "INCLINATION": 86.2544, "RA_OF_ASC_NODE": 284.7457, "ARG_OF_PERICENTER": 44.6643, "MEAN_ANOMALY": 15.2245, "EPHEMERIS_TYPE": 0, "CLASSIFICATION_TYPE": "U", "NORAD_CAT_ID": 33960, "ELEMENT_SET_NO": 999, "REV_AT_EPOCH": 89017, "BSTAR": 0.0029026593, "MEAN_MOTION_DOT": 0.00025254, "MEAN_MOTION_DDOT": 0}, "tle": {"line1": "1 33960U 97051BV  25356.85134986  .00025254  00000+0  29027-2 0  9997", "line2": "2 33960  86.2544 284.7457 0007215  44.6643  15.2245 14.85668232890170"}}, "geometry": {"type": "Point", "coordinates": [104.33463063957305, 3.688518562059081]}}, {"type": "Feature", "properties": {"norad_id": 33966, "name": "IRIDIUM 33 DEB", "group": "iridium-33-debris", "lat": -49.261671160274396, "lon": -134.2643596387273, "alt_km": 732.1458445324561, "timestamp": "2025-12-23T05:02:12.415013+00:00", "meta": {"OBJECT_NAME": "IRIDIUM 33 DEB", "OBJECT_ID": "1997-051CB", "EPOCH": "2025-12-22T13:37:15.049920", "MEAN_MOTION": 14.49630108, "ECCENTRICITY": 0.00085054, "INCLINATION": 86.3912, "RA_OF_ASC_NODE": 41.8093, "ARG_OF_PERICENTER": 157.4604, "MEAN_ANOMALY": 321.7914, "EPHEMERIS_TYPE": 0, "CLASSIFICATION_TYPE": "U", "NORAD_CAT_ID": 33966, "ELEMENT_SET_NO": 999, "REV_AT_EPOCH": 88584, "BSTAR": 0.00043607238, "MEAN_MOTION_DOT": 1.695e-05, "MEAN_MOTION_DDOT": 0}, "tle": {"line1": "1 33966U 97051CB  25356.56753530  .00001695  00000+0  43607-3 0  9997", "line2": "2 33966  86.3912  41.8093 0008505 157.4604 321.7914 14.49630108885844"}}, "geometry": {"type": "Point", "coordinates": [-134.2643596387273, -49.261671160274396]}}, {"type": "Feature", "properties": {"norad_id": 34071, "name": "IRIDIUM 33 DEB", "group": "iridium-33-debris", "lat": -68.96589111112128, "lon": 3.708300620533528, "alt_km": 740.5995418137136, "timestamp": "2025-12-23T05:02:12.415023+00:00", "meta": {"OBJECT_NAME": "IRIDIUM 33 DEB", "OBJECT_ID": "1997-051CE", "EPOCH": "2025-12-22T12:47:17.503872", "MEAN_MOTION": 14.49505346, "ECCENTRICITY": 0.00099075, "INCLINATION": 86.3448, "RA_OF_ASC_NODE": 13.5713, "ARG_OF_PERICENTER": 81.226, "MEAN_ANOMALY": 279.0066, "EPHEMERIS_TYPE": 0, "CLASSIFICATION_TYPE": "U", "NORAD_CAT_ID": 34071, "ELEMENT_SET_NO": 999, "REV_AT_EPOCH": 88476, "BSTAR": 0.000513667, "MEAN_MOTION_DOT": 1.989e-05, "MEAN_MOTION_DDOT": 0}, "tle": {"line1": "1 34071U 97051CE  25356.53284148  .00001989  00000+0  51367-3 0  9994", "line2": "2 34071  86.3448  13.5713 0009907  81.2260 279.0066 14.49505346884768"}}, "geometry": {"type": "Point", "coordinates": [3.708300620533528, -68.96589111112128]}}]}